ONEWEB-0057             
1 45160U 20008AF  26082.16905599 -.00000549  00000+0 -16082-2 0  9996
2 45160  87.8797  53.3912 0001388  86.7537 273.3750 13.10374480297087
ONEWEB-0058             
1 45161U 20008AG  26082.15578135 -.00001210  00000+0 -35035-2 0  9993
2 45161  87.8795  53.4027 0002167  85.5282 274.6093 13.10361267297155
ONEWEB-0059             
1 45162U 20008AH  26082.15232615  .00000304  00000+0  83448-3 0  9997
2 45162  87.8793  53.4039 0001837  89.2688 270.8649 13.10371246297053
ONEWEB-0062             
1 45163U 20008AJ  26081.94895568 -.00000692  00000+0 -20182-2 0  9993
2 45163  87.8801  53.4273 0002306  85.6409 274.4982 13.10373123296894
ONEWEB-0065             
1 45164U 20008AK  26082.20862328  .00000623  00000+0  17471-2 0  9991
2 45164  87.8800  53.3836 0001592  75.6713 284.4591 13.10374265296627
ONEWEB-0066             
1 45424U 20020A   26081.85506192  .00000413  00000+0  11282-2 0  9999
2 45424  87.8896  38.2283 0001847  85.7792 274.3547 13.11418326291364
ONEWEB-0067             
1 45425U 20020B   26082.12138154 -.00000334  00000+0 -97857-3 0  9997
2 45425  87.8904  38.0856 0001627  82.6025 277.5288 13.11415721291453
ONEWEB-0080             
1 45426U 20020C   26082.12257531 -.00032946  00000+0 -91703-1 0  9995
2 45426  87.8897  38.1683 0002715  88.8492 271.2948 13.12621203291425
ONEWEB-0090             
1 45427U 20020D   26082.15021057 -.00000076  00000+0 -24910-3 0  9998
2 45427  87.8897  38.1681 0001920  80.6723 279.4622 13.11418842291395
ONEWEB-0061             
1 45428U 20020E   26081.95325420  .00000313  00000+0  84755-3 0  9992
2 45428  87.8892  38.1933 0001912  81.5895 278.5450 13.11414639291324
ONEWEB-0081             
1 45429U 20020F   26081.85843909  .00000497  00000+0  13673-2 0  9992
2 45429  87.8891  38.2275 0001703  85.5208 274.6115 13.11415633291425
ONEWEB-0069             
1 45430U 20020G   26082.15259634  .00000063  00000+0  14058-3 0  9992
2 45430  87.8894  38.1632 0001799  82.2961 277.8372 13.11417185291391
ONEWEB-0031             
1 45431U 20020H   26082.12463186 -.00000423  00000+0 -12286-2 0  9991
2 45431  87.8883  38.1855 0002061  80.4480 279.6881 13.11416312291370
ONEWEB-0027             
1 45432U 20020J   26082.19426274  .00000076  00000+0  16311-3 0  9992
2 45432  87.9179  22.9190 0002110  71.2289 288.9072 13.17650147295037
ONEWEB-0064             
1 45433U 20020K   26082.12293758 -.00000353  00000+0 -10324-2 0  9992
2 45433  87.8883  38.1764 0002004  78.0225 282.1127 13.11416341291406
ONEWEB-0018             
1 45434U 20020L   26082.23146351  .00000173  00000+0  45115-3 0  9996
2 45434  87.8892  38.1529 0002034  91.8625 268.2736 13.11419540291366
