[{"OBJECT_NAME":"ONEWEB-0057","OBJECT_ID":"2020-008AF","EPOCH":"2026-03-23T04:03:26.437536","MEAN_MOTION":13.1037448,"ECCENTRICITY":0.00013881,"INCLINATION":87.8797,"RA_OF_ASC_NODE":53.3912,"ARG_OF_PERICENTER":86.7537,"MEAN_ANOMALY":273.375,"EPHEMERIS_TYPE":0,"CLASSIFICATION_TYPE":"U","NORAD_CAT_ID":45160,"ELEMENT_SET_NO":999,"REV_AT_EPOCH":29708,"BSTAR":-0.0016082332,"MEAN_MOTION_DOT":-5.49e-6,"MEAN_MOTION_DDOT":0},{"OBJECT_NAME":"ONEWEB-0058","OBJECT_ID":"2020-008AG","EPOCH":"2026-03-23T03:44:19.508640","MEAN_MOTION":13.10361267,"ECCENTRICITY":0.00021671,"INCLINATION":87.8795,"RA_OF_ASC_NODE":53.4027,"ARG_OF_PERICENTER":85.5282,"MEAN_ANOMALY":274.6093,"EPHEMERIS_TYPE":0,"CLASSIFICATION_TYPE":"U","NORAD_CAT_ID":45161,"ELEMENT_SET_NO":999,"REV_AT_EPOCH":29715,"BSTAR":-0.0035034941,"MEAN_MOTION_DOT":-1.21e-5,"MEAN_MOTION_DDOT":0},{"OBJECT_NAME":"ONEWEB-0059","OBJECT_ID":"2020-008AH","EPOCH":"2026-03-23T03:39:20.979360","MEAN_MOTION":13.10371246,"ECCENTRICITY":0.00018378,"INCLINATION":87.8793,"RA_OF_ASC_NODE":53.4039,"ARG_OF_PERICENTER":89.2688,"MEAN_ANOMALY":270.8649,"EPHEMERIS_TYPE":0,"CLASSIFICATION_TYPE":"U","NORAD_CAT_ID":45162,"ELEMENT_SET_NO":999,"REV_AT_EPOCH":29705,"BSTAR":0.00083447998,"MEAN_MOTION_DOT":3.04e-6,"MEAN_MOTION_DDOT":0},{"OBJECT_NAME":"ONEWEB-0062","OBJECT_ID":"2020-008AJ","EPOCH":"2026-03-22T22:46:29.770752","MEAN_MOTION":13.10373123,"ECCENTRICITY":0.00023067,"INCLINATION":87.8801,"RA_OF_ASC_NODE":53.4273,"ARG_OF_PERICENTER":85.6409,"MEAN_ANOMALY":274.4982,"EPHEMERIS_TYPE":0,"CLASSIFICATION_TYPE":"U","NORAD_CAT_ID":45163,"ELEMENT_SET_NO":999,"REV_AT_EPOCH":29689,"BSTAR":-0.0020182339,"MEAN_MOTION_DOT":-6.92e-6,"MEAN_MOTION_DDOT":0},{"OBJECT_NAME":"ONEWEB-0065","OBJECT_ID":"2020-008AK","EPOCH":"2026-03-23T05:00:25.051392","MEAN_MOTION":13.10374265,"ECCENTRICITY":0.00015929,"INCLINATION":87.88,"RA_OF_ASC_NODE":53.3836,"ARG_OF_PERICENTER":75.6713,"MEAN_ANOMALY":284.4591,"EPHEMERIS_TYPE":0,"CLASSIFICATION_TYPE":"U","NORAD_CAT_ID":45164,"ELEMENT_SET_NO":999,"REV_AT_EPOCH":29662,"BSTAR":0.0017471416,"MEAN_MOTION_DOT":6.23e-6,"MEAN_MOTION_DDOT":0},{"OBJECT_NAME":"ONEWEB-0066","OBJECT_ID":"2020-020A","EPOCH":"2026-03-22T20:31:17.349888","MEAN_MOTION":13.11418326,"ECCENTRICITY":0.00018471,"INCLINATION":87.8896,"RA_OF_ASC_NODE":38.2283,"ARG_OF_PERICENTER":85.7792,"MEAN_ANOMALY":274.3547,"EPHEMERIS_TYPE":0,"CLASSIFICATION_TYPE":"U","NORAD_CAT_ID":45424,"ELEMENT_SET_NO":999,"REV_AT_EPOCH":29136,"BSTAR":0.0011282068,"MEAN_MOTION_DOT":4.13e-6,"MEAN_MOTION_DDOT":0},{"OBJECT_NAME":"ONEWEB-0067","OBJECT_ID":"2020-020B","EPOCH":"2026-03-23T02:54:47.365056","MEAN_MOTION":13.11415721,"ECCENTRICITY":0.00016272,"INCLINATION":87.8904,"RA_OF_ASC_NODE":38.0856,"ARG_OF_PERICENTER":82.6025,"MEAN_ANOMALY":277.5288,"EPHEMERIS_TYPE":0,"CLASSIFICATION_TYPE":"U","NORAD_CAT_ID":45425,"ELEMENT_SET_NO":999,"REV_AT_EPOCH":29145,"BSTAR":-0.00097856753,"MEAN_MOTION_DOT":-3.34e-6,"MEAN_MOTION_DDOT":0},{"OBJECT_NAME":"ONEWEB-0080","OBJECT_ID":"2020-020C","EPOCH":"2026-03-23T02:56:30.506784","MEAN_MOTION":13.12621203,"ECCENTRICITY":0.00027151,"INCLINATION":87.8897,"RA_OF_ASC_NODE":38.1683,"ARG_OF_PERICENTER":88.8492,"MEAN_ANOMALY":271.2948,"EPHEMERIS_TYPE":0,"CLASSIFICATION_TYPE":"U","NORAD_CAT_ID":45426,"ELEMENT_SET_NO":999,"REV_AT_EPOCH":29142,"BSTAR":-0.091702502,"MEAN_MOTION_DOT":-0.00032946,"MEAN_MOTION_DDOT":0},{"OBJECT_NAME":"ONEWEB-0090","OBJECT_ID":"2020-020D","EPOCH":"2026-03-23T03:36:18.193248","MEAN_MOTION":13.11418842,"ECCENTRICITY":0.00019201,"INCLINATION":87.8897,"RA_OF_ASC_NODE":38.1681,"ARG_OF_PERICENTER":80.6723,"MEAN_ANOMALY":279.4622,"EPHEMERIS_TYPE":0,"CLASSIFICATION_TYPE":"U","NORAD_CAT_ID":45427,"ELEMENT_SET_NO":999,"REV_AT_EPOCH":29139,"BSTAR":-0.00024909688,"MEAN_MOTION_DOT":-7.6e-7,"MEAN_MOTION_DDOT":0},{"OBJECT_NAME":"ONEWEB-0061","OBJECT_ID":"2020-020E","EPOCH":"2026-03-22T22:52:41.162880","MEAN_MOTION":13.11414639,"ECCENTRICITY":0.00019124,"INCLINATION":87.8892,"RA_OF_ASC_NODE":38.1933,"ARG_OF_PERICENTER":81.5895,"MEAN_ANOMALY":278.545,"EPHEMERIS_TYPE":0,"CLASSIFICATION_TYPE":"U","NORAD_CAT_ID":45428,"ELEMENT_SET_NO":999,"REV_AT_EPOCH":29132,"BSTAR":0.00084755493,"MEAN_MOTION_DOT":3.13e-6,"MEAN_MOTION_DDOT":0},{"OBJECT_NAME":"ONEWEB-0081","OBJECT_ID":"2020-020F","EPOCH":"2026-03-22T20:36:09.137376","MEAN_MOTION":13.11415633,"ECCENTRICITY":0.00017038,"INCLINATION":87.8891,"RA_OF_ASC_NODE":38.2275,"ARG_OF_PERICENTER":85.5208,"MEAN_ANOMALY":274.6115,"EPHEMERIS_TYPE":0,"CLASSIFICATION_TYPE":"U","NORAD_CAT_ID":45429,"ELEMENT_SET_NO":999,"REV_AT_EPOCH":29142,"BSTAR":0.0013673476,"MEAN_MOTION_DOT":4.97e-6,"MEAN_MOTION_DDOT":0},{"OBJECT_NAME":"ONEWEB-0069","OBJECT_ID":"2020-020G","EPOCH":"2026-03-23T03:39:44.323776","MEAN_MOTION":13.11417185,"ECCENTRICITY":0.00017999,"INCLINATION":87.8894,"RA_OF_ASC_NODE":38.1632,"ARG_OF_PERICENTER":82.2961,"MEAN_ANOMALY":277.8372,"EPHEMERIS_TYPE":0,"CLASSIFICATION_TYPE":"U","NORAD_CAT_ID":45430,"ELEMENT_SET_NO":999,"REV_AT_EPOCH":29139,"BSTAR":0.0001405846,"MEAN_MOTION_DOT":6.3e-7,"MEAN_MOTION_DDOT":0},{"OBJECT_NAME":"ONEWEB-0031","OBJECT_ID":"2020-020H","EPOCH":"2026-03-23T02:59:28.192704","MEAN_MOTION":13.11416312,"ECCENTRICITY":0.00020612,"INCLINATION":87.8883,"RA_OF_ASC_NODE":38.1855,"ARG_OF_PERICENTER":80.448,"MEAN_ANOMALY":279.6881,"EPHEMERIS_TYPE":0,"CLASSIFICATION_TYPE":"U","NORAD_CAT_ID":45431,"ELEMENT_SET_NO":999,"REV_AT_EPOCH":29137,"BSTAR":-0.0012285629,"MEAN_MOTION_DOT":-4.23e-6,"MEAN_MOTION_DDOT":0},{"OBJECT_NAME":"ONEWEB-0027","OBJECT_ID":"2020-020J","EPOCH":"2026-03-23T04:39:44.300736","MEAN_MOTION":13.17650147,"ECCENTRICITY":0.00021101,"INCLINATION":87.9179,"RA_OF_ASC_NODE":22.919,"ARG_OF_PERICENTER":71.2289,"MEAN_ANOMALY":288.9072,"EPHEMERIS_TYPE":0,"CLASSIFICATION_TYPE":"U","NORAD_CAT_ID":45432,"ELEMENT_SET_NO":999,"REV_AT_EPOCH":29503,"BSTAR":0.00016311445,"MEAN_MOTION_DOT":7.6e-7,"MEAN_MOTION_DDOT":0},{"OBJECT_NAME":"ONEWEB-0064","OBJECT_ID":"2020-020K","EPOCH":"2026-03-23T02:57:01.806912","MEAN_MOTION":13.11416341,"ECCENTRICITY":0.00020046,"INCLINATION":87.8883,"RA_OF_ASC_NODE":38.1764,"ARG_OF_PERICENTER":78.0225,"MEAN_ANOMALY":282.1127,"EPHEMERIS_TYPE":0,"CLASSIFICATION_TYPE":"U","NORAD_CAT_ID":45433,"ELEMENT_SET_NO":999,"REV_AT_EPOCH":29140,"BSTAR":-0.0010323678,"MEAN_MOTION_DOT":-3.53e-6,"MEAN_MOTION_DDOT":0},{"OBJECT_NAME":"ONEWEB-0018","OBJECT_ID":"2020-020L","EPOCH":"2026-03-23T05:33:18.447264","MEAN_MOTION":13.1141954,"ECCENTRICITY":0.00020346,"INCLINATION":87.8892,"RA_OF_ASC_NODE":38.1529,"ARG_OF_PERICENTER":91.8625,"MEAN_ANOMALY":268.2736,"EPHEMERIS_TYPE":0,"CLASSIFICATION_TYPE":"U","NORAD_CAT_ID":45434,"ELEMENT_SET_NO":999,"REV_AT_EPOCH":29136,"BSTAR":0.00045115139,"MEAN_MOTION_DOT":1.73e-6,"MEAN_MOTION_DDOT":0}]
